[{"OBJECT_NAME":"STARLINK-4794","OBJECT_ID":"2022-114AM","EPOCH":"2026-03-09T22:33:00.750528","MEAN_MOTION":15.08849404,"ECCENTRICITY":9.939e-5,"INCLINATION":53.2166,"RA_OF_ASC_NODE":292.6954,"ARG_OF_PERICENTER":90.6773,"MEAN_ANOMALY":269.4333,"EPHEMERIS_TYPE":0,"CLASSIFICATION_TYPE":"U","NORAD_CAT_ID":53853,"ELEMENT_SET_NO":999,"REV_AT_EPOCH":19301,"BSTAR":-1.8469315e-5,"MEAN_MOTION_DOT":-5.82e-6,"MEAN_MOTION_DDOT":0},{"OBJECT_NAME":"MEGSAT-1","OBJECT_ID":"2000-057B","EPOCH":"2026-03-09T22:47:17.292480","MEAN_MOTION":15.04862037,"ECCENTRICITY":0.0038022,"INCLINATION":64.552,"RA_OF_ASC_NODE":26.971,"ARG_OF_PERICENTER":294.4401,"MEAN_ANOMALY":65.2751,"EPHEMERIS_TYPE":0,"CLASSIFICATION_TYPE":"U","NORAD_CAT_ID":26546,"ELEMENT_SET_NO":999,"REV_AT_EPOCH":38272,"BSTAR":0.00040228449,"MEAN_MOTION_DOT":5.624e-5,"MEAN_MOTION_DDOT":0}]
